{"type": "FeatureCollection", "features": [ {"type": "Feature", "properties": {"norad_id": 35480, "name": "IRIDIUM 33 DEB", "group": "iridium-33-debris", "lat": -55.00317181809775, "lon": -148.9851745344281, "alt_km": 740.022823562259, "timestamp": "2025-12-10T16:57:12.023641+00:00", "meta": {"OBJECT_NAME": "IRIDIUM 33 DEB", "OBJECT_ID": "1997-051QA", "EPOCH": "2025-12-09T19:59:43.135296", "MEAN_MOTION": 14.49744632, "ECCENTRICITY": 0.00159269, "INCLINATION": 86.357, "RA_OF_ASC_NODE": 26.1722, "ARG_OF_PERICENTER": 113.2937, "MEAN_ANOMALY": 246.9945, "EPHEMERIS_TYPE": 0, "CLASSIFICATION_TYPE": "U", "NORAD_CAT_ID": 35480, "ELEMENT_SET_NO": 999, "REV_AT_EPOCH": 86989, "BSTAR": 0.0009193458, "MEAN_MOTION_DOT": 3.565e-05, "MEAN_MOTION_DDOT": 0}, "tle": {"line1": "1 35480U 97051QA  25343.83313814  .00003565  00000+0  91935-3 0  9998", "line2": "2 35480  86.3570  26.1722 0015926 113.2937 246.9945 14.49744632869893"}}, "geometry": {"type": "Point", "coordinates": [-148.9851745344281, -55.00317181809775]}}, {"type": "Feature", "properties": {"norad_id": 35484, "name": "IRIDIUM 33 DEB", "group": "iridium-33-debris", "lat": 42.817839412935655, "lon": -2.9228186991647154, "alt_km": 567.8967670455859, "timestamp": "2025-12-10T16:57:12.023658+00:00", "meta": {"OBJECT_NAME": "IRIDIUM 33 DEB", "OBJECT_ID": "1997-051QE", "EPOCH": "2025-12-09T18:19:22.021248", "MEAN_MOTION": 14.98336228, "ECCENTRICITY": 0.00232979, "INCLINATION": 86.3609, "RA_OF_ASC_NODE": 354.1372, "ARG_OF_PERICENTER": 134.8315, "MEAN_ANOMALY": 225.4815, "EPHEMERIS_TYPE": 0, "CLASSIFICATION_TYPE": "U", "NORAD_CAT_ID": 35484, "ELEMENT_SET_NO": 999, "REV_AT_EPOCH": 61971, "BSTAR": 0.0036943713, "MEAN_MOTION_DOT": 0.00044475, "MEAN_MOTION_DDOT": 0}, "tle": {"line1": "1 35484U 97051QE  25343.76344932  .00044475  00000+0  36944-2 0  9992", "line2": "2 35484  86.3609 354.1372 0023297 134.8315 225.4815 14.98336228619718"}}, "geometry": {"type": "Point", "coordinates": [-2.9228186991647154, 42.817839412935655]}}, {"type": "Feature", "properties": {"norad_id": 35488, "name": "IRIDIUM 33 DEB", "group": "iridium-33-debris", "lat": -84.52365737453539, "lon": 163.91874473690083, "alt_km": 644.3209458357178, "timestamp": "2025-12-10T16:57:12.023670+00:00", "meta": {"OBJECT_NAME": "IRIDIUM 33 DEB", "OBJECT_ID": "1997-051QJ", "EPOCH": "2025-12-10T07:39:38.232864", "MEAN_MOTION": 14.82954928, "ECCENTRICITY": 0.003015, "INCLINATION": 86.3246, "RA_OF_ASC_NODE": 301.994, "ARG_OF_PERICENTER": 50.6144, "MEAN_ANOMALY": 309.7742, "EPHEMERIS_TYPE": 0, "CLASSIFICATION_TYPE": "U", "NORAD_CAT_ID": 35488, "ELEMENT_SET_NO": 999, "REV_AT_EPOCH": 88230, "BSTAR": 0.0023682, "MEAN_MOTION_DOT": 0.0001943, "MEAN_MOTION_DDOT": 0}, "tle": {"line1": "1 35488U 97051QJ  25344.31919251  .00019430  00000+0  23682-2 0  9998", "line2": "2 35488  86.3246 301.9940 0030150  50.6144 309.7742 14.82954928882309"}}, "geometry": {"type": "Point", "coordinates": [163.91874473690083, -84.52365737453539]}}, {"type": "Feature", "properties": {"norad_id": 35616, "name": "IRIDIUM 33 DEB", "group": "iridium-33-debris", "lat": 73.8710591878065, "lon": -0.5726085463389166, "alt_km": 617.633599792006, "timestamp": "2025-12-10T16:57:12.023681+00:00", "meta": {"OBJECT_NAME": "IRIDIUM 33 DEB", "OBJECT_ID": "1997-051QN", "EPOCH": "2025-12-09T17:55:38.523360", "MEAN_MOTION": 14.816872, "ECCENTRICITY": 0.00097125, "INCLINATION": 86.355, "RA_OF_ASC_NODE": 347.1304, "ARG_OF_PERICENTER": 173.7748, "MEAN_ANOMALY": 186.3597, "EPHEMERIS_TYPE": 0, "CLASSIFICATION_TYPE": "U", "NORAD_CAT_ID": 35616, "ELEMENT_SET_NO": 999, "REV_AT_EPOCH": 87530, "BSTAR": 0.0025734917, "MEAN_MOTION_DOT": 0.00020338, "MEAN_MOTION_DDOT": 0}, "tle": {"line1": "1 35616U 97051QN  25343.74697365  .00020338  00000+0  25735-2 0  9996", "line2": "2 35616  86.3550 347.1304 0009712 173.7748 186.3597 14.81687200875307"}}, "geometry": {"type": "Point", "coordinates": [-0.5726085463389166, 73.8710591878065]}}, {"type": "Feature", "properties": {"norad_id": 35618, "name": "IRIDIUM 33 DEB", "group": "iridium-33-debris", "lat": 55.770921795061355, "lon": -0.21119310386435575, "alt_km": 693.941284027278, "timestamp": "2025-12-10T16:57:12.023692+00:00", "meta": {"OBJECT_NAME": "IRIDIUM 33 DEB", "OBJECT_ID": "1997-051QQ", "EPOCH": "2025-12-05T07:42:53.148672", "MEAN_MOTION": 14.52258119, "ECCENTRICITY": 0.00302089, "INCLINATION": 86.3407, "RA_OF_ASC_NODE": 356.7447, "ARG_OF_PERICENTER": 46.3254, "MEAN_ANOMALY": 314.0448, "EPHEMERIS_TYPE": 0, "CLASSIFICATION_TYPE": "U", "NORAD_CAT_ID": 35618, "ELEMENT_SET_NO": 999, "REV_AT_EPOCH": 65286, "BSTAR": 0.00091388234, "MEAN_MOTION_DOT": 3.753e-05, "MEAN_MOTION_DDOT": 0}, "tle": {"line1": "1 35618U 97051QQ  25339.32144848  .00003753  00000+0  91388-3 0  9990", "line2": "2 35618  86.3407 356.7447 0030208  46.3254 314.0448 14.52258119652865"}}, "geometry": {"type": "Point", "coordinates": [-0.21119310386435575, 55.770921795061355]}}, {"type": "Feature", "properties": {"norad_id": 35620, "name": "IRIDIUM 33 DEB", "group": "iridium-33-debris", "lat": 38.36874590682158, "lon": 35.44470643460425, "alt_km": 818.7737531577031, "timestamp": "2025-12-10T16:57:12.023702+00:00", "meta": {"OBJECT_NAME": "IRIDIUM 33 DEB", "OBJECT_ID": "1997-051QS", "EPOCH": "2025-12-09T21:54:44.064864", "MEAN_MOTION": 14.37894536, "ECCENTRICITY": 0.01422721, "INCLINATION": 86.3878, "RA_OF_ASC_NODE": 218.6459, "ARG_OF_PERICENTER": 268.3253, "MEAN_ANOMALY": 90.1645, "EPHEMERIS_TYPE": 0, "CLASSIFICATION_TYPE": "U", "NORAD_CAT_ID": 35620, "ELEMENT_SET_NO": 999, "REV_AT_EPOCH": 59925, "BSTAR": 0.0077821175, "MEAN_MOTION_DOT": 0.00026494, "MEAN_MOTION_DDOT": 0}, "tle": {"line1": "1 35620U 97051QS  25343.91301001  .00026494  00000+0  77821-2 0  9991", "line2": "2 35620  86.3878 218.6459 0142272 268.3253  90.1645 14.37894536599255"}}, "geometry": {"type": "Point", "coordinates": [35.44470643460425, 38.36874590682158]}}, {"type": "Feature", "properties": {"norad_id": 35622, "name": "IRIDIUM 33 DEB", "group": "iridium-33-debris", "lat": 76.9767600168485, "lon": 67.93030559961724, "alt_km": 549.8171500768258, "timestamp": "2025-12-10T16:57:12.023712+00:00", "meta": {"OBJECT_NAME": "IRIDIUM 33 DEB", "OBJECT_ID": "1997-051QU", "EPOCH": "2025-12-08T18:19:37.394400", "MEAN_MOTION": 15.03927644, "ECCENTRICITY": 0.00075851, "INCLINATION": 86.2056, "RA_OF_ASC_NODE": 265.5603, "ARG_OF_PERICENTER": 342.656, "MEAN_ANOMALY": 47.239, "EPHEMERIS_TYPE": 0, "CLASSIFICATION_TYPE": "U", "NORAD_CAT_ID": 35622, "ELEMENT_SET_NO": 999, "REV_AT_EPOCH": 87300, "BSTAR": 0.0061817818, "MEAN_MOTION_DOT": 0.00086206, "MEAN_MOTION_DDOT": 0}, "tle": {"line1": "1 35622U 97051QU  25342.76362725  .00086206  00000+0  61818-2 0  9991", "line2": "2 35622  86.2056 265.5603 0007585 342.6560  47.2390 15.03927644873009"}}, "geometry": {"type": "Point", "coordinates": [67.93030559961724, 76.9767600168485]}}, {"type": "Feature", "properties": {"norad_id": 35628, "name": "IRIDIUM 33 DEB", "group": "iridium-33-debris", "lat": -21.44432661514593, "lon": -168.58355335848816, "alt_km": 680.9293421108932, "timestamp": "2025-12-10T16:57:12.023723+00:00", "meta": {"OBJECT_NAME": "IRIDIUM 33 DEB", "OBJECT_ID": "1997-051RA", "EPOCH": "2025-12-08T19:51:11.189376", "MEAN_MOTION": 14.67493768, "ECCENTRICITY": 0.00109309, "INCLINATION": 86.3576, "RA_OF_ASC_NODE": 10.8203, "ARG_OF_PERICENTER": 356.3974, "MEAN_ANOMALY": 3.7159, "EPHEMERIS_TYPE": 0, "CLASSIFICATION_TYPE": "U", "NORAD_CAT_ID": 35628, "ELEMENT_SET_NO": 999, "REV_AT_EPOCH": 86389, "BSTAR": 0.0020097942, "MEAN_MOTION_DOT": 0.00011424, "MEAN_MOTION_DDOT": 0}, "tle": {"line1": "1 35628U 97051RA  25342.82721284  .00011424  00000+0  20098-2 0  9998", "line2": "2 35628  86.3576  10.8203 0010930 356.3974   3.7159 14.67493768863899"}}, "geometry": {"type": "Point", "coordinates": [-168.58355335848816, -21.44432661514593]}}, {"type": "Feature", "properties": {"norad_id": 35631, "name": "IRIDIUM 33 DEB", "group": "iridium-33-debris", "lat": -65.50730107761767, "lon": -150.13247576735253, "alt_km": 748.8183754639713, "timestamp": "2025-12-10T16:57:12.023733+00:00", "meta": {"OBJECT_NAME": "IRIDIUM 33 DEB", "OBJECT_ID": "1997-051RD", "EPOCH": "2025-12-10T09:15:32.243904", "MEAN_MOTION": 14.47300819, "ECCENTRICITY": 0.0018784, "INCLINATION": 86.3671, "RA_OF_ASC_NODE": 21.9891, "ARG_OF_PERICENTER": 124.9735, "MEAN_ANOMALY": 251.2059, "EPHEMERIS_TYPE": 0, "CLASSIFICATION_TYPE": "U", "NORAD_CAT_ID": 35631, "ELEMENT_SET_NO": 999, "REV_AT_EPOCH": 87163, "BSTAR": 0.00053893, "MEAN_MOTION_DOT": 1.995e-05, "MEAN_MOTION_DDOT": 0}, "tle": {"line1": "1 35631U 97051RD  25344.38578986  .00001995  00000+0  53893-3 0  9996", "line2": "2 35631  86.3671  21.9891 0018784 124.9735 251.2059 14.47300819871636"}}, "geometry": {"type": "Point", "coordinates": [-150.13247576735253, -65.50730107761767]}}, {"type": "Feature", "properties": {"norad_id": 35680, "name": "IRIDIUM 33 DEB", "group": "iridium-33-debris", "lat": 50.64934641441125, "lon": 27.190875207576976, "alt_km": 880.2402770805793, "timestamp": "2025-12-10T16:57:12.023744+00:00", "meta": {"OBJECT_NAME": "IRIDIUM 33 DEB", "OBJECT_ID": "1997-051RJ", "EPOCH": "2025-12-09T21:01:33.153888", "MEAN_MOTION": 14.20836605, "ECCENTRICITY": 0.0150503, "INCLINATION": 86.1036, "RA_OF_ASC_NODE": 22.7904, "ARG_OF_PERICENTER": 287.6789, "MEAN_ANOMALY": 197.3523, "EPHEMERIS_TYPE": 0, "CLASSIFICATION_TYPE": "U", "NORAD_CAT_ID": 35680, "ELEMENT_SET_NO": 999, "REV_AT_EPOCH": 60660, "BSTAR": 0.0057995637, "MEAN_MOTION_DOT": 0.0001408, "MEAN_MOTION_DDOT": 0}, "tle": {"line1": "1 35680U 97051RJ  25343.87607817  .00014080  00000+0  57996-2 0  9995", "line2": "2 35680  86.1036  22.7904 0150503 287.6789 197.3523 14.20836605606606"}}, "geometry": {"type": "Point", "coordinates": [27.190875207576976, 50.64934641441125]}}]}